NORAD_CAT_ID,OBJECT_NAME,OBJECT_TYPE,EPOCH,MEAN_MOTION,ECCENTRICITY,INCLINATION,RA_OF_ASC_NODE,ARG_OF_PERICENTER,MEAN_ANOMALY,BSTAR,MEAN_MOTION_DOT,MEAN_MOTION_DDOT,TLE_LINE0,TLE_LINE1,TLE_LINE2,SEMIMAJOR_AXIS,PERIOD,APOGEE,PERIGEE,DECAYED
52098.0,STARLINK-3665,PAYLOAD,2022-08-30 14:00:01,15.08822723,0.0001585,53.2156,107.175,76.8765,56.8163,0.0020265,0.00032096,0.0,0 STARLINK-3665,1 52098U 22029L   22242.58334491  .00032096  00000-0  20265-2 0  9995,2 52098  53.2156 107.1750 0001585  76.8765  56.8163 15.08822723  1308,6917.933000000001,95.439,540.895,538.702,0.0
52098.0,STARLINK-3665,PAYLOAD,2022-08-30 22:00:00,15.08843862,0.0001666999999999,53.2156,105.6803,69.2773,76.0086,-0.0006761,-0.00011033,0.0,0 STARLINK-3665,1 52098U 22029L   22242.91667824 -.00011033  00000-0 -67610-3 0  9997,2 52098  53.2156 105.6803 0001667  69.2773  76.0086 15.08843862 26397,6917.869000000002,95.437,540.887,538.58,0.0
52098.0,STARLINK-3665,PAYLOAD,2022-08-31 14:00:01,15.08817093,0.0001521999999999,53.2161,102.6856,75.865,92.6067,0.0017784,0.00028111,0.0,0 STARLINK-3665,1 52098U 22029L   22243.58334491  .00028111  00000-0  17784-2 0  9991,2 52098  53.2161 102.6856 0001522  75.8650  92.6067 15.08817093  1309,6917.95,95.439,540.868,538.762,0.0
52098.0,STARLINK-3665,PAYLOAD,2022-08-31 22:00:00,15.08827156,0.0001612,53.2162,101.1909,67.6924,112.4021,0.00011338,1.516e-05,0.0,0 STARLINK-3665,1 52098U 22029L   22243.91667824  .00001516  00000-0  11338-3 0  9997,2 52098  53.2162 101.1909 0001612  67.6924 112.4021 15.08827156 26541,6917.92,95.438,540.9,538.669,0.0
52098.0,STARLINK-3665,PAYLOAD,2022-09-01 14:00:01,15.08833185,0.000154,53.2167,98.1963,76.6501,126.6738,0.0014649,0.00023098,0.0,0 STARLINK-3665,1 52098U 22029L   22244.58335648  .00023098  00000-0  14649-2 0  9993,2 52098  53.2167  98.1963 0001540  76.6501 126.6738 15.08833185  1300,6917.901,95.438,540.832,538.701,0.0
52098.0,STARLINK-3665,PAYLOAD,2022-09-01 22:00:00,15.08838927,0.0001616,53.2167,96.7016,67.8277,147.036,0.00051968,7.992e-05,0.0,0 STARLINK-3665,1 52098U 22029L   22244.91667824  .00007992  00000-0  51968-3 0  9995,2 52098  53.2167  96.7016 0001616  67.8277 147.0360 15.08838927  1306,6917.884,95.438,540.867,538.631,0.0
52098.0,STARLINK-3665,PAYLOAD,2022-09-02 06:00:00,15.08875882,0.0001483,53.2168,95.2043,69.8358,156.6183,-0.004887,-0.00077306,0.0,0 STARLINK-3665,1 52098U 22029L   22245.25001157 -.00077306  00000-0 -48870-2 0  9999,2 52098  53.2168  95.2043 0001483  69.8358 156.6183 15.08875882 26740,6917.771,95.435,540.6619999999998,538.61,0.0
52098.0,STARLINK-3665,PAYLOAD,2022-09-02 14:00:01,15.08823893,0.0001412,53.2171,93.7072,77.2045,160.8542,0.0011642,0.00018281,0.0,0 STARLINK-3665,1 52098U 22029L   22245.58334491  .00018281  00000-0  11642-2 0  9997,2 52098  53.2171  93.7072 0001412  77.2045 160.8542 15.08823893  1303,6917.93,95.439,540.771,538.818,0.0
52098.0,STARLINK-3665,PAYLOAD,2022-09-02 22:00:01,15.08821539,0.0001506,53.2171,92.2125,67.4475,182.2599,0.00075048,0.0001167,0.0,0 STARLINK-3665,1 52098U 22029L   22245.91668981  .00011670  00000-0  75048-3 0  9994,2 52098  53.2171  92.2125 0001506  67.4475 182.2599 15.08821539  1303,6917.937,95.439,540.844,538.76,0.0
52098.0,STARLINK-3665,PAYLOAD,2022-09-03 14:00:01,15.08841337,0.0001392,53.2172,89.2183,79.0563,193.7556,0.00088725,0.00013861,0.0,0 STARLINK-3665,1 52098U 22029L   22246.58334491  .00013861  00000-0  88725-3 0  9994,2 52098  53.2172  89.2183 0001392  79.0563 193.7556 15.08841337  1302,6917.876,95.437,540.7040000000002,538.778,0.0
52098.0,STARLINK-3665,PAYLOAD,2022-09-03 22:00:00,15.08833843,0.0001486,53.2171,87.7238,68.8989,215.5182,0.0012424,0.00019537,0.0,0 STARLINK-3665,1 52098U 22029L   22246.91667824  .00019537  00000-0  12424-2 0  9998,2 52098  53.2171  87.7238 0001486  68.8989 215.5182 15.08833843  1308,6917.899,95.438,540.7919999999998,538.736,0.0
52098.0,STARLINK-3665,PAYLOAD,2022-09-04 06:00:00,15.08869042,0.0001351999999999,53.2168,86.2263,72.4708,223.5438,-0.0022223,-0.0003551,0.0,0 STARLINK-3665,1 52098U 22029L   22247.25001157 -.00035510  00000-0 -22223-2 0  9996,2 52098  53.2168  86.2263 0001352  72.4708 223.5438 15.08869042 27040,6917.792,95.436,540.592,538.721,0.0
52098.0,STARLINK-3665,PAYLOAD,2022-09-04 14:00:01,15.08854315,0.0001315999999999,53.217,84.7295,79.3943,228.2957,-0.0012489,-0.00020117,0.0,0 STARLINK-3665,1 52098U 22029L   22247.58335648 -.00020117  00000-0 -12489-2 0  9997,2 52098  53.2170  84.7295 0001316  79.3943 228.2957 15.08854315  1304,6917.837,95.437,540.612,538.7909999999998,0.0
52098.0,STARLINK-3665,PAYLOAD,2022-09-04 20:00:01,15.08832891,0.0001315999999999,53.2167,83.6088,68.727,157.5607,6.2204e-05,7.02e-06,0.0,0 STARLINK-3665,1 52098U 22029L   22247.83334491  .00000702  00000-0  62204-4 0  9998,2 52098  53.2167  83.6088 0001316  68.7270 157.5607 15.08832891  1304,6917.901999999999,95.438,540.678,538.857,0.0
52098.0,STARLINK-3665,PAYLOAD,2022-09-05 04:00:00,15.08859208,0.0001269,53.2165,82.1119,68.0646,169.8079,-0.0013580999999999,-0.00021848,0.0,0 STARLINK-3665,1 52098U 22029L   22248.16667824 -.00021848  00000-0 -13581-2 0  9992,2 52098  53.2165  82.1119 0001269  68.0646 169.8079 15.08859208 27182,6917.821999999999,95.436,540.565,538.809,0.0
52098.0,STARLINK-3665,PAYLOAD,2022-09-05 14:00:01,15.08867407,0.0001338,53.2167,80.2408,77.7835,264.5902,-0.0026974,-0.00042993,0.0,0 STARLINK-3665,1 52098U 22029L   22248.58334491 -.00042993  00000-0 -26974-2 0  9993,2 52098  53.2167  80.2408 0001338  77.7835 264.5902 15.08867407  1302,6917.797,95.436,540.587,538.736,0.0
52098.0,STARLINK-3665,PAYLOAD,2022-09-05 22:00:00,15.08820109,0.0001496,53.2166,78.7461,68.8303,285.1535,0.0011175,0.00017532,0.0,0 STARLINK-3665,1 52098U 22029L   22248.91667824  .00017532  00000-0  11175-2 0  9995,2 52098  53.2166  78.7461 0001496  68.8303 285.1535 15.08820109  1307,6917.941,95.439,540.841,538.771,0.0
52098.0,STARLINK-3665,PAYLOAD,2022-09-06 12:00:00,15.08806831,0.0001523,53.2165,76.1253,78.6493,205.5962,0.0020888,0.00033081,0.0,0 STARLINK-3665,1 52098U 22029L   22249.50001157  .00033081  00000-0  20888-2 0  9990,2 52098  53.2165  76.1253 0001523  78.6493 205.5962 15.08806831 27389,6917.982,95.44,540.9,538.793,0.0
52098.0,STARLINK-3665,PAYLOAD,2022-09-06 14:00:01,15.08827704,0.000154,53.2166,75.7517,77.6965,299.434,-0.00011002,-2.038e-05,0.0,0 STARLINK-3665,1 52098U 22029L   22249.58334491 -.00002038  00000-0 -11002-3 0  9997,2 52098  53.2166  75.7517 0001540  77.6965 299.4340 15.08827704  1308,6917.918000000002,95.438,540.8480000000002,538.7180000000002,0.0
52098.0,STARLINK-3665,PAYLOAD,2022-09-06 22:00:00,15.08803359,0.0001617,53.2166,74.257,68.9237,319.7883,0.0025172,0.00039961,0.0,0 STARLINK-3665,1 52098U 22029L   22249.91667824  .00039961  00000-0  25172-2 0  9998,2 52098  53.2166  74.2570 0001617  68.9237 319.7883 15.08803359  1309,6917.9919999999975,95.44,540.976,538.739,0.0
52098.0,STARLINK-3665,PAYLOAD,2022-09-07 06:00:00,15.08832291,0.0001528,53.2166,72.7589,73.3223,326.9627,-0.00027517,-4.664e-05,0.0,0 STARLINK-3665,1 52098U 22029L   22250.25001157 -.00004664  00000-0 -27517-3 0  9998,2 52098  53.2166  72.7589 0001528  73.3223 326.9627 15.08832291 27501,6917.904,95.438,540.826,538.712,0.0
52098.0,STARLINK-3665,PAYLOAD,2022-09-07 14:00:01,15.08850198,0.0001581,53.2167,71.2625,75.8726,335.9918,-0.00053206,-8.748e-05,0.0,0 STARLINK-3665,1 52098U 22029L   22250.58334491 -.00008748  00000-0 -53206-3 0  9995,2 52098  53.2167  71.2625 0001581  75.8726 335.9918 15.08850198  1300,6917.849,95.437,540.808,538.621,0.0
52098.0,STARLINK-3665,PAYLOAD,2022-09-07 22:00:00,15.08821441,0.0001648,53.2168,69.7676,67.6664,355.8052,0.002898,0.00046112,0.0,0 STARLINK-3665,1 52098U 22029L   22250.91667824  .00046112  00000-0  28980-2 0  9996,2 52098  53.2168  69.7676 0001648  67.6664 355.8052 15.08821441  1302,6917.937,95.439,540.942,538.6619999999998,0.0
52098.0,STARLINK-3665,PAYLOAD,2022-09-08 06:00:00,15.08855896,0.0001520999999999,53.2169,68.2694,72.336,2.7349,-0.00053584,-8.809999999999999e-05,0.0,0 STARLINK-3665,1 52098U 22029L   22251.25001157 -.00008810  00000-0 -53584-3 0  9999,2 52098  53.2169  68.2694 0001521  72.3360   2.7349 15.08855896 27657,6917.831999999999,95.437,540.749,538.645,0.0
52098.0,STARLINK-3665,PAYLOAD,2022-09-08 14:00:01,15.08859945,0.0001519,53.2171,66.773,74.1111,12.5652,-0.0023018,-0.00036755,0.0,0 STARLINK-3665,1 52098U 22029L   22251.58334491 -.00036755  00000-0 -23018-2 0  9992,2 52098  53.2171  66.7730 0001519  74.1111  12.5652 15.08859945  1304,6917.819,95.436,540.735,538.634,0.0
52098.0,STARLINK-3665,PAYLOAD,2022-09-08 22:00:00,15.08816541,0.0001541999999999,53.2171,65.2779,64.6659,33.6223,0.0033103,0.00052756,0.0,0 STARLINK-3665,1 52098U 22029L   22251.91667824  .00052756  00000-0  33103-2 0  9991,2 52098  53.2171  65.2779 0001542  64.6659  33.6223 15.08816541  1301,6917.9519999999975,95.439,540.884,538.75,0.0
52098.0,STARLINK-3665,PAYLOAD,2022-09-09 14:00:01,15.08849617,0.0001373,53.2175,62.2835,71.6227,49.858,-0.0016033,-0.0002572,0.0,0 STARLINK-3665,1 52098U 22029L   22252.58334491 -.00025720  00000-0 -16033-2 0  9992,2 52098  53.2175  62.2835 0001373  71.6227  49.8580 15.08849617  1301,6917.851,95.437,540.6659999999998,538.766,0.0
52098.0,STARLINK-3665,PAYLOAD,2022-09-09 22:00:00,15.088119199999998,0.0001422,53.2173,60.7884,61.7867,71.2951,0.0033653,0.00053637,0.0,0 STARLINK-3665,1 52098U 22029L   22252.91667824  .00053637  00000-0  33653-2 0  9991,2 52098  53.2173  60.7884 0001422  61.7867  71.2951 15.08811920  1308,6917.965999999999,95.439,540.815,538.847,0.0
52098.0,STARLINK-3665,PAYLOAD,2022-09-10 04:00:00,15.08859476,0.0001376999999999,53.2174,59.6647,67.7905,343.9743,-0.0026246,-0.00041838,0.0,0 STARLINK-3665,1 52098U 22029L   22253.16667824 -.00041838  00000-0 -26246-2 0  9991,2 52098  53.2174  59.6647 0001377  67.7905 343.9743 15.08859476 27945,6917.821,95.436,540.638,538.7330000000002,0.0
